NORAD_CAT_ID,OBJECT_NAME,OBJECT_TYPE,EPOCH,MEAN_MOTION,ECCENTRICITY,INCLINATION,RA_OF_ASC_NODE,ARG_OF_PERICENTER,MEAN_ANOMALY,BSTAR,MEAN_MOTION_DOT,MEAN_MOTION_DDOT,TLE_LINE0,TLE_LINE1,TLE_LINE2,SEMIMAJOR_AXIS,PERIOD,APOGEE,PERIGEE,DECAYED
50823.0,STARLINK-3334,PAYLOAD,2023-01-06 05:41:55,15.08823692,0.0002329,53.2167,329.6317,49.718,310.4016,-0.00082638,-0.00013411,0.0,0 STARLINK-3334,1 50823U 22001W   23006.23745212 -.00013411  00000-0 -82638-3 0  9992,2 50823  53.2167 329.6317 0002329  49.7180 310.4016 15.08823692 56808,6917.93,95.439,541.406,538.184,0.0
50823.0,STARLINK-3334,PAYLOAD,2023-01-06 21:35:47,15.08826612,0.0001847,53.2151,326.6567,36.1372,323.9745,-0.00011411,-2.103e-05,0.0,0 STARLINK-3334,1 50823U 22001W   23006.89985645 -.00002103  00000-0 -11411-3 0  9997,2 50823  53.2151 326.6567 0001847  36.1372 323.9745 15.08826612 55624,6917.920999999999,95.438,541.064,538.509,0.0
50823.0,STARLINK-3334,PAYLOAD,2023-01-07 03:57:20,15.08840949,0.0002341,53.2162,325.4675,38.5626,321.5533,0.0004853,7.444e-05,0.0,0 STARLINK-3334,1 50823U 22001W   23007.16481708  .00007444  00000-0  48530-3 0  9992,2 50823  53.2162 325.4675 0002341  38.5626 321.5533 15.08840949 56945,6917.877,95.437,541.362,538.123,0.0
50823.0,STARLINK-3334,PAYLOAD,2023-01-07 05:32:43,15.08844826,0.0002289,53.2165,325.17,38.4635,321.652,0.0011834,0.00018599,0.0,0 STARLINK-3334,1 50823U 22001W   23007.23105853  .00018599  00000-0  11834-2 0  9993,2 50823  53.2165 325.1700 0002289  38.4635 321.6520 15.08844826 55678,6917.866,95.437,541.314,538.1469999999998,0.0
50823.0,STARLINK-3334,PAYLOAD,2023-01-07 13:29:39,15.08840915,0.0002694,53.2167,323.6812,48.5928,311.5295,0.00075102,0.00011685,0.0,0 STARLINK-3334,1 50823U 22001W   23007.56226218  .00011685  00000-0  75102-3 0  9996,2 50823  53.2167 323.6812 0002694  48.5928 311.5295 15.08840915 55722,6917.8780000000015,95.437,541.606,537.879,0.0
50823.0,STARLINK-3334,PAYLOAD,2023-01-08 05:23:31,15.08816854,0.0002237,53.218,320.7111,47.2566,312.8614,-0.00016018,-2.835e-05,0.0,0 STARLINK-3334,1 50823U 22001W   23008.22467311 -.00002835  00000-0 -16018-3 0  9991,2 50823  53.2180 320.7111 0002237  47.2566 312.8614 15.08816854 57102,6917.951,95.439,541.364,538.269,0.0
50823.0,STARLINK-3334,PAYLOAD,2023-01-08 13:20:27,15.08825658,0.000235,53.2178,319.2249,50.1375,309.9824,0.00013055,1.789e-05,0.0,0 STARLINK-3334,1 50823U 22001W   23008.55587699  .00001789  00000-0  13055-3 0  9992,2 50823  53.2178 319.2249 0002350  50.1375 309.9824 15.08825658 55875,6917.924,95.438,541.415,538.164,0.0
50823.0,STARLINK-3334,PAYLOAD,2023-01-09 05:14:18,15.0885708,0.0002054,53.2167,316.2486,35.9536,324.1594,0.0010890999999999,0.00017096,0.0,0 STARLINK-3334,1 50823U 22001W   23009.21827192  .00017096  00000-0  10891-2 0  9993,2 50823  53.2167 316.2486 0002054  35.9536 324.1594 15.08857080 57255,6917.828,95.436,541.114,538.2719999999998,0.0
50823.0,STARLINK-3334,PAYLOAD,2023-01-09 13:11:14,15.08847937,0.0002247,53.2163,314.7606,37.72,322.395,0.00032463,4.883e-05,0.0,0 STARLINK-3334,1 50823U 22001W   23009.54947080  .00004883  00000-0  32463-3 0  9998,2 50823  53.2163 314.7606 0002247  37.7200 322.3950 15.08847937 56020,6917.856,95.437,541.276,538.1669999999998,0.0
50823.0,STARLINK-3334,PAYLOAD,2023-01-10 13:02:00,15.08850399,0.0002158,53.2151,310.3019,38.1025,322.012,0.00021116,3.075e-05,0.0,0 STARLINK-3334,1 50823U 22001W   23010.54306687  .00003075  00000-0  21116-3 0  9997,2 50823  53.2151 310.3019 0002158  38.1025 322.0120 15.08850399 57458,6917.849,95.437,541.206,538.221,0.0
50823.0,STARLINK-3334,PAYLOAD,2023-01-10 20:58:56,15.08845,0.0002345,53.2157,308.8149,42.3017,317.8155,3.4572e-05,2.62e-06,0.0,0 STARLINK-3334,1 50823U 22001W   23010.87426862  .00000262  00000-0  34572-4 0  9997,2 50823  53.2157 308.8149 0002345  42.3017 317.8155 15.08845000 56223,6917.865,95.437,541.352,538.1080000000002,0.0
50823.0,STARLINK-3334,PAYLOAD,2023-01-11 03:20:29,15.08846112,0.0002135,53.2165,307.6254,41.8997,318.2158,9.7772e-05,1.268e-05,0.0,0 STARLINK-3334,1 50823U 22001W   23011.13922775  .00001268  00000-0  97772-4 0  9999,2 50823  53.2165 307.6254 0002135  41.8997 318.2158 15.08846112 57543,6917.861999999999,95.437,541.2040000000002,538.25,0.0
50823.0,STARLINK-3334,PAYLOAD,2023-01-11 19:14:20,15.08851757,0.0002188,53.2168,304.652,41.8755,318.2405,0.00016054,2.268e-05,0.0,0 STARLINK-3334,1 50823U 22001W   23011.80162253  .00002268  00000-0  16054-3 0  9994,2 50823  53.2168 304.6520 0002188  41.8755 318.2405 15.08851757 56364,6917.844,95.437,541.2230000000002,538.196,0.0
50823.0,STARLINK-3334,PAYLOAD,2023-01-12 04:46:38,15.08854521,0.0002213,53.2163,302.867,41.21,318.9059,0.00025526,3.778e-05,0.0,0 STARLINK-3334,1 50823U 22001W   23012.19905940  .00003778  00000-0  25526-3 0  9996,2 50823  53.2163 302.8670 0002213  41.2100 318.9059 15.08854521 57705,6917.835999999998,95.437,541.232,538.17,0.0
50823.0,STARLINK-3334,PAYLOAD,2023-01-12 12:43:34,15.08850131,0.0002235,53.216,301.3803,40.7475,319.3684,0.00013448,1.853e-05,0.0,0 STARLINK-3334,1 50823U 22001W   23012.53025962  .00001853  00000-0  13448-3 0  9993,2 50823  53.2160 301.3803 0002235  40.7475 319.3684 15.08850131 57754,6917.849,95.437,541.261,538.168,0.0
50823.0,STARLINK-3334,PAYLOAD,2023-01-12 22:15:53,15.08837007,0.0002107,53.2161,299.5965,42.0203,318.0951,7.0299e-06,-1.76e-06,0.0,0 STARLINK-3334,1 50823U 22001W   23012.92770689 -.00000176  00000-0  70299-5 0  9996,2 50823  53.2161 299.5965 0002107  42.0203 318.0951 15.08837007 56539,6917.89,95.438,541.212,538.297,0.0
50823.0,STARLINK-3334,PAYLOAD,2023-01-13 01:26:39,15.08840878,0.0002014,53.2163,299.002,44.4609,315.6545,2.0857e-05,4.4e-07,0.0,0 STARLINK-3334,1 50823U 22001W   23013.06018370  .00000044  00000-0  20857-4 0  9991,2 50823  53.2163 299.0020 0002014  44.4609 315.6545 15.08840878 57837,6917.8780000000015,95.437,541.136,538.349,0.0
50823.0,STARLINK-3334,PAYLOAD,2023-01-14 04:28:13,15.088404999999998,0.0001834,53.2151,293.9452,46.7278,313.3866,8.916299999999999e-05,1.131e-05,0.0,0 STARLINK-3334,1 50823U 22001W   23014.18627132  .00001131  00000-0  89163-4 0  9990,2 50823  53.2151 293.9452 0001834  46.7278 313.3866 15.08840500 58005,6917.879,95.438,541.013,538.475,0.0
50823.0,STARLINK-3334,PAYLOAD,2023-01-14 18:46:42,15.08826698,0.0001452,53.2165,291.2684,54.4024,305.7103,0.00010559,1.392e-05,0.0,0 STARLINK-3334,1 50823U 22001W   23014.78243989  .00001392  00000-0  10559-3 0  9991,2 50823  53.2165 291.2684 0001452  54.4024 305.7103 15.08826698 58099,6917.920999999999,95.438,540.7909999999999,538.7819999999999,0.0
50823.0,STARLINK-3334,PAYLOAD,2023-01-15 04:19:01,15.08843248,0.0001825,53.2144,289.4841,57.2308,302.886,0.00031497,4.729e-05,0.0,0 STARLINK-3334,1 50823U 22001W   23015.17987291  .00004729  00000-0  31497-3 0  9997,2 50823  53.2144 289.4841 0001825  57.2308 302.8860 15.08843248 58155,6917.87,95.437,540.998,538.4730000000001,0.0
50823.0,STARLINK-3334,PAYLOAD,2023-01-15 10:40:33,15.08833705,0.0002097,53.2147,288.2932,58.9353,301.1845,5.7472e-05,6.26e-06,0.0,0 STARLINK-3334,1 50823U 22001W   23015.44483783  .00000626  00000-0  57472-4 0  9998,2 50823  53.2147 288.2932 0002097  58.9353 301.1845 15.08833705 58192,6917.9,95.438,541.215,538.314,0.0
50823.0,STARLINK-3334,PAYLOAD,2023-01-15 21:48:15,15.0885084,0.0001501999999999,53.2146,286.2127,76.1958,283.9202,0.00031287,4.696e-05,0.0,0 STARLINK-3334,1 50823U 22001W   23015.90851408  .00004696  00000-0  31287-3 0  9998,2 50823  53.2146 286.2127 0001502  76.1958 283.9202 15.08850840 56986,6917.847,95.437,540.751,538.673,0.0
50823.0,STARLINK-3334,PAYLOAD,2023-01-16 05:45:10,15.08871629,0.0001450999999999,53.2139,284.7266,69.8343,290.2805,0.00065156,0.00010106,0.0,0 STARLINK-3334,1 50823U 22001W   23016.23970340  .00010106  00000-0  65156-3 0  9997,2 50823  53.2139 284.7266 0001451  69.8343 290.2805 15.08871629 58312,6917.784000000001,95.436,540.6519999999999,538.645,0.0
50823.0,STARLINK-3334,PAYLOAD,2023-01-16 10:31:21,15.08807944,0.000146,53.2141,283.8348,85.4862,274.6297,-0.00061489,-0.00010052,0.0,0 STARLINK-3334,1 50823U 22001W   23016.43844763 -.00010052  00000-0 -61489-3 0  9995,2 50823  53.2141 283.8348 0001460  85.4862 274.6297 15.08807944 58349,6917.978,95.44,540.8530000000001,538.8330000000001,0.0
50823.0,STARLINK-3334,PAYLOAD,2023-01-16 20:03:40,15.08816787,0.0001372,53.2121,282.0503,84.5865,275.5284,-0.00040692,-6.754e-05,0.0,0 STARLINK-3334,1 50823U 22001W   23016.83588869 -.00006754  00000-0 -40692-3 0  9998,2 50823  53.2121 282.0503 0001372  84.5865 275.5284 15.08816787 57122,6917.951,95.439,540.765,538.867,0.0
50823.0,STARLINK-3334,PAYLOAD,2023-01-17 00:49:50,15.08826868,0.000169,53.209,281.1576,85.4553,274.6632,-0.0001465,-2.618e-05,0.0,0 STARLINK-3334,1 50823U 22001W   23017.03460775 -.00002618  00000-0 -14650-3 0  9996,2 50823  53.2090 281.1576 0001690  85.4553 274.6632 15.08826868 58437,6917.920999999999,95.438,540.955,538.616,0.0
50823.0,STARLINK-3334,PAYLOAD,2023-01-17 13:32:55,15.08831609,0.0001514,53.2136,278.7813,95.5811,264.5354,0.00015,2.1e-05,0.0,0 STARLINK-3334,1 50823U 22001W   23017.56453143  .00002100  00000-0  15000-3 0  9999,2 50823  53.2136 278.7813 0001514  95.5811 264.5354 15.08831609 57233,6917.906,95.438,540.818,538.724,0.0
50823.0,STARLINK-3334,PAYLOAD,2023-01-17 21:29:51,15.08843599,0.000128,53.2129,277.2938,101.5591,258.5544,0.0012669,0.00019934,0.0,0 STARLINK-3334,1 50823U 22001W   23017.89573502  .00019934  00000-0  12669-2 0  9997,2 50823  53.2129 277.2938 0001280 101.5591 258.5544 15.08843599 57280,6917.869000000001,95.437,540.62,538.849,0.0
50823.0,STARLINK-3334,PAYLOAD,2023-01-18 10:12:56,15.08856826,0.0001256,53.2137,274.9137,93.4673,266.6463,0.0016012,0.00025299,0.0,0 STARLINK-3334,1 50823U 22001W   23018.42565364  .00025299  00000-0  16012-2 0  9991,2 50823  53.2137 274.9137 0001256  93.4673 266.6463 15.08856826 58645,6917.829000000001,95.436,540.563,538.825,0.0
